url,title,phone,email,organization,address_line1,address_line2,locality,administrative_area,postal_code,country,full_address,about,contact,description,website,review_1,review_2,review_3,review_4,review_5
https://pro.restorationindustry.org/find-a-member/peak-alliance,Peak Alliance,,,Peak Alliance,853 Broadway,Unit 1120,New York,NY,10003,United States,853 Broadway Unit 1120 New York NY 10003 United States,,"Contact
Ryan Aimers",,,,,,,
https://pro.restorationindustry.org/find-a-certified-professional/mr-jeffrey-gross-cr,Mr. Jeffrey Gross CR,"Phone
9175993243","Email
jyg@dbi-cc.com",DBI Consultants,1261 Broadway,9th Floor,New York,NY,10001,United States,1261 Broadway 9th Floor New York NY 10001 United States,,,,https://firstonsite.com/,,,,,
https://pro.restorationindustry.org/find-a-member/first-onsite-property-restoration-50,First Onsite Property Restoration,"Phone
(212) 447-6767",,First Onsite Property Restoration,"280 Madison Ave., Fl. 4",,New York,NY,10016-0801,United States,"280 Madison Ave., Fl. 4 New York NY 10016-0801 United States",,"Contact
Jeff Hudson",,,,,,,
https://pro.restorationindustry.org/find-a-certified-professional/david-watts,David Watts,"Phone
4476767","Email
david.watts@firstonsite.com",First Onsite,280 Madison Ave,Floor 4,New York,NY,10016,United States,280 Madison Ave Floor 4 New York NY 10016 United States,"About Organization
restoration",,,,,,,,
https://pro.restorationindustry.org/find-a-member/servpro-southern-staten-island,Servpro of Southern Staten Island,"Phone
2127689400",,Servpro of Southern Staten Island,450 Johnson Ave,,Brooklyn,NY,11237,United States,450 Johnson Ave Brooklyn NY 11237 United States,,"Contact
Mr Robert Citrangola","About
Mitigation services and Restoration",,,,,,
https://pro.restorationindustry.org/find-a-member/american-fire-restoration-llc,"American Fire Restoration, LLC","Phone
718-383-7006",,"American Fire Restoration, LLC",71-02 80th Street,,Glendale,NY,11385,United States,71-02 80th Street Glendale NY 11385 United States,,"Contact
Barry Swidler","About
Mold, Water, Fire",http://www.amfirerestoration.com/,,,,,
https://pro.restorationindustry.org/find-a-member/puroclean-restoration-services,PuroClean Restoration Services,"Phone
(347) 429-4681",,PuroClean Restoration Services,"9229 Lamont Avenue, Apartment 3H",,Elmhurst,NY,11373,United States,"9229 Lamont Avenue, Apartment 3H Elmhurst NY 11373 United States",,"Contact
Alexandra Fajardo",,https://www.puroclean.com/elmhurst-ny-puroclean-restoration-services/,,,,,
https://pro.restorationindustry.org/find-a-member/rapid-dry-llc,Rapid Dry LLC,"Phone
2019183668",,Rapid Dry LLC,319 Schuyler Avenue,,Kearny,NJ,07032,United States,319 Schuyler Avenue Kearny NJ 07032 United States,,"Contact
Alvaro Amador","About
Rapid Dry is a full-service disaster restoration and construction company specializing in water damage restoration, fire damage restoration, mold remediation, and reconstruction services. We provide 24/7 emergency response to residential and commercial properties, ensuring fast and effective mitigation to minimize damage and downtime.

With a team of certified professionals, we handle everything from structural drying and smoke damage cleanup to complete reconstruction and remodeling. Our expertise extends to general construction, allowing us to rebuild and restore properties to their pre-loss condition efficiently.

At Rapid Dry, we are committed to delivering high-quality restoration solutions, industry-leading standards, and exceptional customer service. Whether it’s a burst pipe, fire damage, or full-scale property reconstruction, we have the knowledge, experience, and resources to get the job done right.",https://rapidsolutions247.com/,,,,,
https://pro.restorationindustry.org/find-a-member/nj-water-and-mold-llc,NJ Water and Mold LLC,"Phone
2013709851",,NJ Water and Mold LLC,1116 Edgewater Ave,,Ridgefield,NJ,07657,United States,1116 Edgewater Ave Ridgefield NJ 07657 United States,,"Contact
Dennis Chinea","About
Water damage, smoke and fire damage and mold remediation - Mitigation",http://www.njwaterandmold.com/,,,,,
https://pro.restorationindustry.org/find-a-member/5star-restoration-servicesllc-0,"5star restoration services,llc","Phone
8622368691",,"5star restoration services,llc",PO BOX 22967,,Newark,NJ,07101,United States,PO BOX 22967 Newark NJ 07101 United States,,"Contact
Sulaimun Jenkins",,,,,,,
https://pro.restorationindustry.org/find-a-member/puroclean-newark,PuroClean of Newark,,,PuroClean of Newark,119-121 S 15TH ST,,Newark,NJ,07107,United States,119-121 S 15TH ST Newark NJ 07107 United States,,"Contact
Peter Kane",,,,,,,
https://pro.restorationindustry.org/find-a-member/puroclean-garfield,PuroClean of Garfield,"Phone
330-8505",,PuroClean of Garfield,"66 Palisade Avenue, Unit 2",,Garfield,NJ,07026,United States,"66 Palisade Avenue, Unit 2 Garfield NJ 07026 United States",,"Contact
George Kidonis",,,,,,,
https://pro.restorationindustry.org/find-a-member/gemini-restoration,Gemini Restoration,"Phone
(908) 686-7777",,Gemini Restoration,725 Lehigh Avenue,,Union,NJ,07083,United States,725 Lehigh Avenue Union NJ 07083 United States,,"Contact
Guy Abrahamson",,http://www.geminirestoration.com/,,,,,
https://pro.restorationindustry.org/find-a-member/servpro-norther-sussex-county,Servpro of Norther Sussex County,"Phone
908-233-7070",,Servpro of Norther Sussex County,702 Rahway Ave,,Union,NJ,07083,United States,702 Rahway Ave Union NJ 07083 United States,,"Contact
Mr. John Oliver","About
Structural Cleaning Restoration and Reconstruction",,,,,,
https://pro.restorationindustry.org/find-a-member/king-restoration,King Restoration,,,King Restoration,Suite 5a,,Valley Stream,NY,,United States,Suite 5a Valley Stream NY United States,,"Contact
Lee Moser",,,,,,,
https://pro.restorationindustry.org/find-a-member/rainbow-interantional-staten-island,Rainbow Interantional of Staten Island,"Phone
16462096209",,Rainbow Interantional of Staten Island,220 industrial loop,,Staten Island,NY,10309,United States,220 industrial loop Staten Island NY 10309 United States,,"Contact
John Curatola","About
Restoration company",,,,,,
https://pro.restorationindustry.org/find-a-member/rainbow-restoration-staten-island,Rainbow Restoration of Staten Island,"Phone
6462096209",,Rainbow Restoration of Staten Island,Rainbow International,220 Industrial Loop,Staten Island,NY,10309,United States,Rainbow International 220 Industrial Loop Staten Island NY 10309 United States,,"Contact
John Curatola","About
Restoration Contractor",https://rainbowrestores.com/staten-island,,,,,
https://pro.restorationindustry.org/find-a-member/consolidated-environmental-inc,"Consolidated Environmental, Inc.",,,"Consolidated Environmental, Inc.","149 Regina Ave, Unit A",,Rahway,NJ,07065,United States,"149 Regina Ave, Unit A Rahway NJ 07065 United States",,"Contact
Chris Alvarado",,,,,,,
https://pro.restorationindustry.org/find-a-member/advanced-disaster-recovery-fairfield,Advanced Disaster Recovery - Fairfield,"Phone
702-3311",,Advanced Disaster Recovery - Fairfield,174 Passaic Ave,,Fairfield,NJ,07004,United States,174 Passaic Ave Fairfield NJ 07004 United States,,"Contact
AJ Nicolosi",,http://www.www.advanceddri.com/,,,,,
https://pro.restorationindustry.org/find-a-member/puroclean-morristown,PuroClean of Morristown,"Phone
1-844-444-PURO",,PuroClean of Morristown,6 Split Rock Rd.,,Livingston,NJ,07039,United States,6 Split Rock Rd. Livingston NJ 07039 United States,,"Contact
Nelson Rivera","About
When your home or business has been damaged by anything from storms to fires to leaky pipes, PuroClean of Morristown is standing by to help you get on the road to full recovery quickly, competently and respectfully. Now is not the time to risk your property on amateurs—choose the tested and trusted professionals at PuroClean of Morristown to help you in your time of need. Our customer service is second to none, and our relationships with local insurers mean your claim will be handled more quickly.",https://www.puroclean.com/pm-nj,,,,,
https://pro.restorationindustry.org/find-a-member/servpro-northwest-bergen,SERVPRO of Northwest Bergen,"Phone
201-236-2400",,SERVPRO of Northwest Bergen,151 Crescent ave,,Waldwick,NJ,07463,United States,151 Crescent ave Waldwick NJ 07463 United States,,"Contact
Charlie Vingoe","About
As a trusted leader in the restoration industry, SERVPRO of Northwest Bergen County has the advanced training and equipment needed to clean and restore your home and business. We are locally owned, and our highly-trained team of certified professionals is ready to respond - every day, any time.

*Residential and Commercial Services

*24-Hour Emergency Service
*The #1 Choice in Cleanup and Restoration*
*Advanced Restoration Technology and Cleaning Techniques
*Faster to any size disaster™",http://www.servpronorthwestbergen.com/,,,,,
https://pro.restorationindustry.org/find-a-member/puroclean-southern-westchester,PuroClean of Southern Westchester,"Phone
330-8333",,PuroClean of Southern Westchester,750 Saw Mill River Rd,,Ardsley,NY,10502,United States,750 Saw Mill River Rd Ardsley NY 10502 United States,,"Contact
Taiwo Akinyemi",,,,,,,
https://pro.restorationindustry.org/find-a-member/environmental-appraisers-and-builders-dba-strongwater-restoration,Environmental Appraisers and Builders DBA Strongwater Restoration,"Phone
718-357-9191",,Environmental Appraisers and Builders DBA Strongwater Restoration,111 Calvert Street,,Harrison,NY,10528,United States,111 Calvert Street Harrison NY 10528 United States,,"Contact
Andre Monte Santo","About
Since 1963, Strongwater Restoration has provided expert, comprehensive remediation and restoration services throughout the New York tri-state area for Water Damage, Fire & Smoke Damage, Asbestos, Mold, Lead Paint Removal, Appraisals, Estimates, and Expert Witness Testimony.",https://strongwaterrestoration.com/,,,,,
https://pro.restorationindustry.org/find-a-member/puroclean-jericho,PuroClean of Jericho,"Phone
421-6400",,PuroClean of Jericho,33 South Service Road,,Jericho,NY,11753,United States,33 South Service Road Jericho NY 11753 United States,,"Contact
Tishaun Dennis",,,,,,,
https://pro.restorationindustry.org/find-a-member/rainbow-international-somerset-0,Rainbow International of Somerset,,,Rainbow International of Somerset,100 Ryan Street,Suite 5,South Plainfield,NJ,07080,United States,100 Ryan Street Suite 5 South Plainfield NJ 07080 United States,,"Contact
Michael Allerti",,,,,,,
https://pro.restorationindustry.org/find-a-member/franchise-restoration,Franchise Restoration,"Phone
914-784-0050",,Franchise Restoration,24 POLY PARK,,Rye,NY,10580,United States,24 POLY PARK Rye NY 10580 United States,,"Contact
Frank Lombardi",,,,,,,
https://pro.restorationindustry.org/find-a-member/pdq-fire-water-damage-restoration,PDQ Fire & Water Damage Restoration,"Phone
973-378-1900",,PDQ Fire & Water Damage Restoration,302 Boonton Ave.,,Boonton,NJ,07005,United States,302 Boonton Ave. Boonton NJ 07005 United States,,"Contact
Lance Caffrey","About
Fire and Water Damage Restoration",https://www.pdqfirewaterdamage.com/,,,,,
https://pro.restorationindustry.org/find-a-member/franchise-restoration-1,Franchise Restoration,"Phone
6466421061",,Franchise Restoration,2975 Westchester Avenue,,Purchase,NY,10577,United States,2975 Westchester Avenue Purchase NY 10577 United States,,"Contact
Vince Palmieri","About
Restoration Business",https://franchiserestoration.com/,,,,,
https://pro.restorationindustry.org/find-a-member/new-crystal-restoration-enterprises-inc,"The New Crystal Restoration Enterprises, Inc.","Phone
(914) 937-0500",,"The New Crystal Restoration Enterprises, Inc.",109 S. Regent St.,,Port Chester,NY,10573-3510,United States,109 S. Regent St. Port Chester NY 10573-3510 United States,,"Contact
Rosemary Cordasco","About
Restoration Company",https://newcrystalrestoratio.com/,,,,,
https://pro.restorationindustry.org/find-a-member/puroclean-montville,PuroClean of Montville,"Phone
(551) 333-7247",,PuroClean of Montville,42 Hilltop Terrace,,Bloomingdale,NJ,07403,United States,42 Hilltop Terrace Bloomingdale NJ 07403 United States,,"Contact
Murad Rod Suleiman",,https://www.puroclean.com/bloomingdale-nj-puroclean-montville/,,,,,
https://pro.restorationindustry.org/find-a-member/rainbow-restoration-boonton-west-milford,Rainbow Restoration of Boonton-West Milford,"Phone
18087802847",,Rainbow Restoration of Boonton-West Milford,914 River Place,,Butler,NJ,07405,United States,914 River Place Butler NJ 07405 United States,,"Contact
Celeste Hutchinson","About
Restoration and Mitigation services.",http://www.rainbowretores.com/,,,,,
https://pro.restorationindustry.org/find-a-member/franchise-restoration-0,FRANCHISE RESTORATION,"Phone
914-784-0050",,FRANCHISE RESTORATION,4 ORCHARD DR,,Purchase,NY,10577,United States,4 ORCHARD DR Purchase NY 10577 United States,,"Contact
John Fiorino",,,,,,,
https://pro.restorationindustry.org/find-a-member/puroclean-emergency-restoration-specialists-0,PuroClean Emergency Restoration Specialists,"Phone
570-5060",,PuroClean Emergency Restoration Specialists,228 East Rte 59,Suite 179,Nanuet,NY,10954,United States,228 East Rte 59 Suite 179 Nanuet NY 10954 United States,,"Contact
Mitch Cohen",,,,,,,
https://pro.restorationindustry.org/find-a-member/puroclean-disaster-masters,PuroClean Disaster Masters,"Phone
(908) 377-0707",,PuroClean Disaster Masters,432 Lincoln Blvd,,Middlesex,NJ,08846,United States,432 Lincoln Blvd Middlesex NJ 08846 United States,,"Contact
Sandra White",,https://www.puroclean.com/middlesex-nj-puroclean-disaster-response/,,,,,
https://pro.restorationindustry.org/find-a-member/northeast-power-dry,Northeast Power Dry,,,Northeast Power Dry,1 Chimney Rock Rd,,Bridgewater,NJ,08807,United States,1 Chimney Rock Rd Bridgewater NJ 08807 United States,,"Contact
Peter Filipiak",,,,,,,
https://pro.restorationindustry.org/find-a-member/puroclean-northern-westchester,PuroClean of Northern Westchester,"Phone
502-9400",,PuroClean of Northern Westchester,66 North Highland Avenue,,Ossining,NY,10562,United States,66 North Highland Avenue Ossining NY 10562 United States,,"Contact
Peter Meringolo",,,,,,,
https://pro.restorationindustry.org/find-a-member/always-dry,Always Dry,"Phone
6314526368",,Always Dry,235 Farmers Avenue,,Lindenhurst,NY,11757,United States,235 Farmers Avenue Lindenhurst NY 11757 United States,,"Contact
Always Dry","About
Water, Fire, Mold Remediation and Restoration",http://www.alwaysdry247.com/,,,,,
https://pro.restorationindustry.org/find-a-member/speedy-cleaning-restoration,Speedy Cleaning & Restoration,"Phone
8453627600",,Speedy Cleaning & Restoration,P.O. Box 472,,Pomona,NY,10970,United States,P.O. Box 472 Pomona NY 10970 United States,,"Contact
Yossi Friedman","About
Speedy Cleaning & Restoration specializes in property mitigation, offering fast, reliable services to restore homes and businesses after disasters. We are always keeping the needs of the insured in mind to ensure a smooth and stress-free restoration process.",https://speedycleaningny.com/,,,,,
https://pro.restorationindustry.org/find-a-member/service-master-timeless,Service Master by Timeless,"Phone
973-658-7777",,Service Master by Timeless,105 W Dewey Avenue,Building B / Unit 13,Wharton,NJ,07885,United States,105 W Dewey Avenue Building B / Unit 13 Wharton NJ 07885 United States,,"Contact
Bruce Wishnia","About
Fire, Smoke, Water, Mold, Trauma, Disinfectant Deodorization, Infectious Disease, Full Service Restoration, Full Service Construction, Full Mitigation, Full Remediation",http://www.servicemasterbytimeless.com/,,,,,
https://pro.restorationindustry.org/find-a-member/puroclean-property-damage-experts-0,PuroClean Property Damage Experts,"Phone
703-3280",,PuroClean Property Damage Experts,110 C North Clinton Avenue,,Lindenhurst,NY,11757,United States,110 C North Clinton Avenue Lindenhurst NY 11757 United States,,"Contact
Frank Cassese",,,,,,,
https://pro.restorationindustry.org/find-a-member/blue-kangaroo-packoutz-long-island,Blue Kangaroo Packoutz of Long Island,,,Blue Kangaroo Packoutz of Long Island,143 Pine Aire Drive,Unit 4,Bay Shore,NY,11706,United States,143 Pine Aire Drive Unit 4 Bay Shore NY 11706 United States,,"Contact
Ryan Mulligan",,,,,,,
https://pro.restorationindustry.org/find-a-member/servpro-freehold,Servpro of Freehold,"Phone
7324314440",,Servpro of Freehold,306 monmouth rd,,Millstone,NJ,08510-7936,United States,306 monmouth rd Millstone NJ 08510-7936 United States,,"Contact
Oliver Fox","About
Fire, Water, Mold, Cleaning, Construction, Restoration Services",,,,,,
https://pro.restorationindustry.org/find-a-member/restoration-1-suffolk-county,Restoration 1 of Suffolk County,"Phone
6313202008",,Restoration 1 of Suffolk County,278 Indian Head Road,,Kings Park,NY,11754,United States,278 Indian Head Road Kings Park NY 11754 United States,,"Contact
Ryan Klis","About
We mitigate any water, fire, smoke, mold, or biohazard conditions in resident or commercial properties.",http://www.restoration1suffolkcounty.com/,,,,,
https://pro.restorationindustry.org/find-a-member/imold,iMold,"Phone
9084320773",,iMold,16 Pioneer Drive,,Hillsborough,NJ,8844,United States,16 Pioneer Drive Hillsborough NJ 8844 United States,,"Contact
Adam Metauro",,,,,,,
https://pro.restorationindustry.org/find-a-member/servpro-greenwich,Servpro of Greenwich,"Phone
2033241642",,Servpro of Greenwich,173 Main Street,,Norwalk,CT,06851,United States,173 Main Street Norwalk CT 06851 United States,,"Contact
MIke Keating","About
ServPro Remediation and MIT/RE Reconstruction. Northeast Abatement- Asbestos Remediation",,,,,,
https://pro.restorationindustry.org/find-a-member/puroclean-wilton-ridgefield,PuroClean of Wilton | Ridgefield,"Phone
475.277.2400",,PuroClean of Wilton | Ridgefield,24 Danbury Road,Suite 204,Wilton,CT,06897,United States,24 Danbury Road Suite 204 Wilton CT 06897 United States,,"Contact
Alejandro Restrepo","About
We are a Hispanic American, family operated disaster restoration company. We help our community with damage from water, fire, mold and biohazard. With deep roots in the P&C Insurance industry we are ready to help our client's through their difficult times.",http://www.puroclean.com/pwr-ct,,,,,
https://pro.restorationindustry.org/find-a-member/advanced-disaster-recovery-highland-falls,Advanced Disaster Recovery - Highland Falls,"Phone
294-8919",,Advanced Disaster Recovery - Highland Falls,302 Main Street,,Highland Falls,NY,10928,United States,302 Main Street Highland Falls NY 10928 United States,,"Contact
Chris Aroosian",,http://www.www.advanceddri.com/,,,,,
https://pro.restorationindustry.org/find-a-member/emergi-clean-inc,"Emergi-Clean, Inc.","Phone
9089671985",,"Emergi-Clean, Inc.",207 Old York Road,,Flemington,NJ,08822,United States,207 Old York Road Flemington NJ 08822 United States,,"Contact
Scott Vogel","About
Biohazard, Infection Disease mitigation and recovery service. Hazardous Substance / Materials mitigation / Recovery",http://www.emergiclean.com/,,,,,
https://pro.restorationindustry.org/find-a-certified-professional/william-thompson,William Thompson,"Phone
7329395175","Email
Projectmanager@emergiclean.com","Emergi-Clean, Inc.",207 Old York Road,,Flemington,NJ,08822,United States,207 Old York Road Flemington NJ 08822 United States,,,,http://www.emergiclean.com/,,,,,
https://pro.restorationindustry.org/find-a-member/kando-group,Kando Group,,,Kando Group,585 Prospect St,301A,Lakewood,NJ,08701,United States,585 Prospect St 301A Lakewood NJ 08701 United States,,"Contact
Dov Fishman",,,,,,,
https://pro.restorationindustry.org/find-a-member/ati-restoration-llc-flemington-mark1,"ATI Restoration, LLC -Flemington - Mark1","Phone
400-9353",,"ATI Restoration, LLC -Flemington - Mark1",8 Bartles Corner Rd,,Flemington,NJ,08822,United States,8 Bartles Corner Rd Flemington NJ 08822 United States,,"Contact
Nora Kuderka",,,,,,,
https://pro.restorationindustry.org/find-a-member/rainbow-international-north-shorenorthern-queens,Rainbow International of The North Shore/Northern Queens,,,Rainbow International of The North Shore/Northern Queens,856-2 Johnson Avenue,,Ronkonkoma,NY,11779,United States,856-2 Johnson Avenue Ronkonkoma NY 11779 United States,,"Contact
Carl Castrogivanni",,,,,,,
https://pro.restorationindustry.org/find-a-member/clean-slate-services-inc,"CLEAN SLATE SERVICES, INC",,,"CLEAN SLATE SERVICES, INC",186 locust ave,,Oakdale,NY,11769,United States,186 locust ave Oakdale NY 11769 United States,,"Contact
Richard Daly",,,,,,,
https://pro.restorationindustry.org/find-a-member/proprinters-inc,ProPrinters Inc,"Phone
732 309 6550",,ProPrinters Inc,25 Laurel Wood Drive,,Lawrenceville,NJ,08648,United States,25 Laurel Wood Drive Lawrenceville NJ 08648 United States,,"Contact
Derek Miller ProPrinters Inc","About
full service marketing and promotional agency with graphics design services, printing, promotional products, marketing swag and fulfillment.",https://proprintersonline.net/,,,,,
https://pro.restorationindustry.org/find-a-member/blusky-restoration-contractors-45,BluSky Restoration Contractors,,,BluSky Restoration Contractors,105 N Gold Dr Suite B,,Robbinsville,NJ,08691,United States,105 N Gold Dr Suite B Robbinsville NJ 08691 United States,,"Contact
Doug Ingel",,,,,,,
https://pro.restorationindustry.org/find-a-member/bulovas-restorations-inc,Bulovas Restorations Inc.,"Phone
6313585200",,Bulovas Restorations Inc.,85-6 Air Park Drive,,Ronkonkoma,NY,11779,United States,85-6 Air Park Drive Ronkonkoma NY 11779 United States,,"Contact
Rory Bulovas","About
Bulovas Restorations Inc. is a full service property damage restoration contractor.",http://www.bulovasrestorations.com/,,,,,
https://pro.restorationindustry.org/find-a-member/hnr-restoration,HNR Restoration,,,HNR Restoration,732 Route 25A,,Setauket- East Setauket,NY,11733,United States,732 Route 25A Setauket- East Setauket NY 11733 United States,,"Contact
Thomas Gironda",,,,,,,
https://pro.restorationindustry.org/find-a-member/rainbow-international-long-island,Rainbow International of Long Island,"Phone
(631) 563-7860",,Rainbow International of Long Island,4835 B Veterans Memorial Highway,,Holbrook,NY,11741,United States,4835 B Veterans Memorial Highway Holbrook NY 11741 United States,,"Contact
Russ Regan",,,,,,,
https://pro.restorationindustry.org/find-a-member/advanced-disaster-recovery-inc,"Advanced Disaster Recovery, Inc.","Phone
845-754-4470",,"Advanced Disaster Recovery, Inc.",2713 Route 17M,,New Hampton,NY,10958,United States,2713 Route 17M New Hampton NY 10958 United States,,"Contact
Greg Boatwright","About
Full Service Disaster Restoration. We focus on helping our clients get back to normal as soon as possible. Water, fire, mold, biohazard, contents and full reconstruction services are offered. Financing available.",http://www.advanceddri.com/,,,,,
https://pro.restorationindustry.org/find-a-member/advanced-disaster-recovery-toms-river,Advanced Disaster Recovery - Toms River,"Phone
228-7582",,Advanced Disaster Recovery - Toms River,5 Executive Drive,,Toms River,NJ,08753,United States,5 Executive Drive Toms River NJ 08753 United States,,"Contact
Greg Zitzner",,,,,,,
https://pro.restorationindustry.org/find-a-member/lightspeed-restoration-orange-county,lightspeed Restoration of Orange County,,,lightspeed Restoration of Orange County,,,Middletown,NY,,United States,Middletown NY United States,,"Contact
Phil Whitbeck",,,,,,,
https://pro.restorationindustry.org/find-a-member/puroclean-central-orange,PuroClean of Central Orange,"Phone
869-5999",,PuroClean of Central Orange,130 Wickham Avenue,,Middletown,NY,10940,United States,130 Wickham Avenue Middletown NY 10940 United States,,"Contact
Milton Valerio",,,,,,,
https://pro.restorationindustry.org/find-a-member/certified-restoration-services,Certified Restoration Services,"Phone
1-610-467-5022",,Certified Restoration Services,1000 Northbrook Dr. #511,,Trevose,PA,19053,United States,1000 Northbrook Dr. #511 Trevose PA 19053 United States,,"Contact
Brian Dalfonso","About
Restoration contractor serving the metro Philadelphia area, that specializes in biohazard mitigation and mold removal. We utilize state of the art electrostatic fogging agents for complete remediation of all biohazards, malignment odors and mold spores. We follow up with complete air quality and air particulate testing and counts.",https://certifiedrestore.com/,,,,,
https://pro.restorationindustry.org/find-a-member/rytech-restoration-northeast-philadelphia,Rytech Restoration of Northeast Philadelphia,"Phone
2153305216",,Rytech Restoration of Northeast Philadelphia,1360 Industrial Blvd,,Southampton,PA,18966,United States,1360 Industrial Blvd Southampton PA 18966 United States,,"Contact
Eric Chapman","About
Rytech Restoration of Northeast Philadelphia provides 24/7/365 emergency service by certified technicians trained to get Pennsylvania residential homes and commercial properties back to normal efficiently and fast! We specialize in water damage restoration repair, mold removal, mold remediation, decontamination, and flood damage cleanup services. Live specialists are standing by, ready to answer your questions and dispatch a Rytech tech to your door. Schedule a free inspection today!",https://northeast-philadelphia.rytechinc.com/,,,,,
https://pro.restorationindustry.org/find-a-member/ati-restoration-llc-chalfont-mark1,"ATI Restoration, LLC -Chalfont - Mark1","Phone
400-9353",,"ATI Restoration, LLC -Chalfont - Mark1",140 New Britain Blvd,,Chalfont,PA,18914,United States,140 New Britain Blvd Chalfont PA 18914 United States,,"Contact
Jeff Vera",,,,,,,
https://pro.restorationindustry.org/find-a-member/ati-restoration-llc-moorestown-mark1,"ATI Restoration, LLC -Moorestown - Mark1","Phone
400-9353",,"ATI Restoration, LLC -Moorestown - Mark1",311 New Albany Rd,,Moorestown,NJ,08057,United States,311 New Albany Rd Moorestown NJ 08057 United States,,"Contact
Eric Casanova",,,,,,,
https://pro.restorationindustry.org/find-a-member/rainbow-international-bethlehem,Rainbow International of Bethlehem,"Phone
392-5966",,Rainbow International of Bethlehem,855 Merrivale Rd,,Bethlehem,PA,18017-2328,United States,855 Merrivale Rd Bethlehem PA 18017-2328 United States,,"Contact
Michael Coogan",,,,,,,
https://pro.restorationindustry.org/find-a-member/armor-restoration-and-building,Armor Restoration and Building,"Phone
8772766701",,Armor Restoration and Building,901 Unruh Avenue,,Philadelphia,PA,19111,United States,901 Unruh Avenue Philadelphia PA 19111 United States,,"Contact
Brienne Grimaldi","About
full service restoration company. specializing in fire, smoke, water and natural disaster",http://armorrestoration.net/,,,,,
https://pro.restorationindustry.org/find-a-member/advanced-disaster-recovery-brodheaadsville,Advanced Disaster Recovery - Brodheaadsville,"Phone
213-3142",,Advanced Disaster Recovery - Brodheaadsville,149 Bond Lane,,Brodheadsville,PA,18322,United States,149 Bond Lane Brodheadsville PA 18322 United States,,"Contact
Lawrence Liero",,http://www.www.advanceddri.com/,,,,,
https://pro.restorationindustry.org/find-a-member/hygienic-cleaning-restoration-llc,Hygienic Cleaning & Restoration LLC,"Phone
631-676-1990",,Hygienic Cleaning & Restoration LLC,"3 Midhampton Ave, Unit 5",,Quogue,NY,11959,United States,"3 Midhampton Ave, Unit 5 Quogue NY 11959 United States",,"Contact
Andriy Pozdniakov Hygienic Cleaning & Restoration LLC","About
We are a restoration company specializing in water damage, fire restoration, mold remediation and all natural disaster. Full service company from the start of an emergency to the end when house is put back together. We do our own rebuilds in house.",http://www.hygieniccleaning.net/,,,,,
https://pro.restorationindustry.org/find-a-member/servpro-downtown-philadelphiateam-lutz,SERVPRO of Downtown Philadelphia/Team Lutz,"Phone
2153684110",,SERVPRO of Downtown Philadelphia/Team Lutz,777 Schwab Road,Suite P,Hatfield,PA,19440,United States,777 Schwab Road Suite P Hatfield PA 19440 United States,,"Contact
Steve Lutz","About
Disaster Restoration Contractor",,,,,,
https://pro.restorationindustry.org/find-a-member/ercolano-cleaning-restoration,Ercolano Cleaning & Restoration,,,Ercolano Cleaning & Restoration,3 Powdered Metal Drive,,North Haven,CT,06473,United States,3 Powdered Metal Drive North Haven CT 06473 United States,,"Contact
Nick Macsata",,,,,,,
https://pro.restorationindustry.org/find-a-member/eastern-diversified-services-inc-dki,"Eastern Diversified Services, Inc. (DKI)","Phone
449-9011",,"Eastern Diversified Services, Inc. (DKI)",89 Allentown Road,,Souderton,PA,18964,United States,89 Allentown Road Souderton PA 18964 United States,,"Contact
Mark Guinther",,http://easterndiversified.com/,,,,,
https://pro.restorationindustry.org/find-a-member/eastern-diversified-services,Eastern Diversified Services,"Phone
2674975772",,Eastern Diversified Services,89 Allentown Rd,,Souderton,PA,18964,United States,89 Allentown Rd Souderton PA 18964 United States,,"Contact
Nikki Steltenkamp","About
Full Service Disaster Restoration",https://www.easterndiversified.com/,,,,,
https://pro.restorationindustry.org/find-a-member/servpro-allentown-central-and-western-lehigh-county,Servpro of Allentown Central and Western Lehigh County,"Phone
610-776-7774",,Servpro of Allentown Central and Western Lehigh County,1506 S. Albert Street,,Allentown,PA,18103,United States,1506 S. Albert Street Allentown PA 18103 United States,,"Contact
Mr Charles Doyle","About
Property Damage Restoration
Fire/Water/Mold
Structural & Contents Mitigation
Commercial Drying
Textile Cleaning
Dry Ice Blasting
Blood Borne Pathogen Cleaning
Construction Rebuild Services",https://www.servprowesternlehighcounty.com/,,,,,
https://pro.restorationindustry.org/find-a-member/puroclean-stroudsburg-saylorsburg,PuroClean of Stroudsburg & Saylorsburg,"Phone
438-3373",,PuroClean of Stroudsburg & Saylorsburg,1145 Interchange Road,,Gilbert,PA,18331,United States,1145 Interchange Road Gilbert PA 18331 United States,,"Contact
Avi Sohal",,,,,,,
https://pro.restorationindustry.org/find-a-member/advanced-disaster-recovery-hawley,Advanced Disaster Recovery - Hawley,"Phone
294-8919",,Advanced Disaster Recovery - Hawley,"1319 Purdytown Turnpike, Suite A",,Hawley,PA,18428,United States,"1319 Purdytown Turnpike, Suite A Hawley PA 18428 United States",,"Contact
Chris Aroosian",,http://www.www.advanceddri.com/,,,,,
https://pro.restorationindustry.org/find-a-member/puroclean-lansdale,PuroClean of Lansdale,"Phone
2158968680",,PuroClean of Lansdale,2033 Lucon Rd,Bldg Rear,Schwenksville,PA,19473,United States,2033 Lucon Rd Bldg Rear Schwenksville PA 19473 United States,,"Contact
Mr Christian Carpico","About
PuroClean of Lansdale is a trusted property restoration company specializing in water, fire, mold, and biohazard remediation. Known as the ""Paramedics of Property Damage,"" we deliver fast, compassionate service to restore properties efficiently and safely, partnering with clients and insurance providers for a seamless recovery experience.",https://www.puroclean.com/schwenksville-pa-puroclean-lansdale/,,,,,
https://pro.restorationindustry.org/find-a-member/servpro-king-prussia,SERVPRO of King of Prussia,"Phone
7033466525",,SERVPRO of King of Prussia,161 Boro Line Road,,King Of Prussia,PA,19406,United States,161 Boro Line Road King Of Prussia PA 19406 United States,,"Contact
Mr. Francis Flaherty Jr.","About
SERVPRO of King of Prussia - Team Fabiani specializes in the cleanup and restoration of residential and commercial property after a fire, smoke, water, mold, biohazard or storm damage. Our staff is highly trained in property damage restoration and bio-remediation. From initial and ongoing training at SERVPRO’s corporate training facility to regular IICRC-industry certification, rest assured our staff is equipped with the knowledge to restore your property. With a nationwide system of qualified franchises, no damage is too large or too small for SERVPRO of King of Prussia.",https://www.servprokingofprussia.com/,,,,,
https://pro.restorationindustry.org/find-a-member/servpro-woodburydeptford,SERVPRO of WoodburyDeptford,"Phone
8566860100",,SERVPRO of WoodburyDeptford,610 RYAN AVE,SUITE 6,Westville,NJ,08093,United States,610 RYAN AVE SUITE 6 Westville NJ 08093 United States,,"Contact
SCOTT ODONNELL","About
SERVPRO TEAM ODONNELL",http://servprowoodburydeptford.com/,,,,,
https://pro.restorationindustry.org/find-a-member/unlimited-restoration-inc,"Unlimited Restoration, Inc.","Phone
(888) 327-9664",,"Unlimited Restoration, Inc.",705 General Washington Avenue,Suite 501,Norristown,PA,19403,United States,705 General Washington Avenue Suite 501 Norristown PA 19403 United States,,"Contact
Mike Feulner","About
Commercial, Industrial, and Multi-Family Property Restoration",https://www.urinow.com/,,,,,
https://pro.restorationindustry.org/find-a-member/advanced-disaster-recovery-kingston,Advanced Disaster Recovery - Kingston,"Phone
294-8919",,Advanced Disaster Recovery - Kingston,404 East Chester Street,,Kingston,NY,12401,United States,404 East Chester Street Kingston NY 12401 United States,,"Contact
Chris Aroosian",,http://www.www.advanceddri.com/,,,,,
https://pro.restorationindustry.org/find-a-member/puroclean-professional-restoration,PuroClean Professional Restoration,"Phone
(845) 481-9060",,PuroClean Professional Restoration,612 Washington Avenue,,Kingston,NY,12401,United States,612 Washington Avenue Kingston NY 12401 United States,,"Contact
Jonathan Beever",,https://www.puroclean.com/kingston-ny-puroclean-professional-restoration/,,,,,
https://pro.restorationindustry.org/find-a-member/restorecore-inc,"RestoreCore, Inc.","Phone
209-2411",,"RestoreCore, Inc.",650 Clark Ave,Suite B,King Of Prussia,PA,19406,United States,650 Clark Ave Suite B King Of Prussia PA 19406 United States,,"Contact
Andrew Goldberg",,,,,,,
https://pro.restorationindustry.org/find-a-member/crystal-restoration-services-new-england,Crystal Restoration Services of New England,"Phone
2039968035",,Crystal Restoration Services of New England,303 Captain Lewis Dr.,,Southington,CT,06489-1170,United States,303 Captain Lewis Dr. Southington CT 06489-1170 United States,,"Contact
Nicholas Martino","About
Family owned and operated mitigation company Since 1964. Servicing Connecticut for over 60 years! We pride ourselves in taking care of customers like family!",https://www.crystalrestorationct.com/,,,,,
https://pro.restorationindustry.org/find-a-member/ati-restoration-llc-philadelphia-venturi-restoration,"ATI Restoration, LLC -Philadelphia - Venturi Restoration",,,"ATI Restoration, LLC -Philadelphia - Venturi Restoration",318 Boro Road,,Primos,PA,19018,United States,318 Boro Road Primos PA 19018 United States,,"Contact
Mike Sigafoos",,,,,,,
https://pro.restorationindustry.org/find-a-member/hs-restoration,HS Restoration,"Phone
6098041099",,HS Restoration,1620 W Moss Mill Rd,,Egg Harbor City,NJ,08215,United States,1620 W Moss Mill Rd Egg Harbor City NJ 08215 United States,,"Contact
Yehuda Jawary","About
South Jersey Restoration serving Atlantic and cape may counties.",http://www.hsrestoration.com/,,,,,
https://pro.restorationindustry.org/find-a-member/blusky-restoration-contractors-46,BluSky Restoration Contractors,,,BluSky Restoration Contractors,300 Schell Ln #305,,Phoenixville,PA,,United States,300 Schell Ln #305 Phoenixville PA United States,,"Contact
Jamie Belotti",,,,,,,
https://pro.restorationindustry.org/find-a-member/blusky-restoration-contractors-37,BluSky Restoration Contractors,,,BluSky Restoration Contractors,300 Schell Ln #305,,Phoenixville,PA,19460,United States,300 Schell Ln #305 Phoenixville PA 19460 United States,,"Contact
Mike Williams",,,,,,,
https://pro.restorationindustry.org/find-a-member/delaware-county-janitorial-fire-restoration,Delaware County Janitorial & Fire Restoration,"Phone
563-0010",,Delaware County Janitorial & Fire Restoration,5 1/2 Bartram Ave. Rear,,Glenolden,PA,19036,United States,5 1/2 Bartram Ave. Rear Glenolden PA 19036 United States,,"Contact
Jim Sandone, Jr.",,http://www.delcorestoration.com/,,,,,
https://pro.restorationindustry.org/find-a-certified-professional/james-sandone,James Sandone,"Phone
(610) 583-5266","Email
jsandone@delcorestoration.com",Delaware County Fire Restoration/Janitorial Services (DKI) - HQ,P.O. Box 74,,Glenolden,PA,19036,United States,P.O. Box 74 Glenolden PA 19036 United States,,,,http://www.delcorestoration.com/,,,,,
https://pro.restorationindustry.org/find-a-member/servpro-media,Servpro of Media,"Phone
6102378912",,Servpro of Media,"119 Springfield Ave Folsom, PA",,Folsom,PA,19033,United States,"119 Springfield Ave Folsom, PA Folsom PA 19033 United States",,"Contact
Mr. Michael May Jr.","About
Fire, water, mold, and biohazard restoration company.",http://www.servpromedia.com/,,,,,
https://pro.restorationindustry.org/find-a-member/all-dry-services-southern-new-england,All Dry Services of Southern New England,"Phone
6178756086",,All Dry Services of Southern New England,"600 Four Rod Road, Unit 2",,Berlin,CT,06037,United States,"600 Four Rod Road, Unit 2 Berlin CT 06037 United States",,"Contact
Ernest Cloutier","About
All Dry Services of Southern New England is a property restoration firm with locations in Plymouth, MA, West Warwick, RI, Berlin, CT and Stamford, CT.",http://www.myalldry.com/connecticut,,,,,
https://pro.restorationindustry.org/find-a-member/houzpital-property-damage-restoration,Houzpital Property Damage Restoration,"Phone
1-860-426-1975",,Houzpital Property Damage Restoration,411 John Downey Dr,,New Britain,CT,06051,United States,411 John Downey Dr New Britain CT 06051 United States,,"Contact
Joseph Gibertoni","About
At HOUZPITAL, we blend tradition with innovation to provide top-tier restoration services. Our mission is to protect and enhance your property using cutting-edge smart home technology.",https://houzpital.com/,,,,,
https://pro.restorationindustry.org/find-a-member/matunuck-capital-llc,Matunuck Capital LLC,,,Matunuck Capital LLC,25 Sheffield street,Unit 4,Old Saybrook,CT,06475,United States,25 Sheffield street Unit 4 Old Saybrook CT 06475 United States,,"Contact
Roger Roche",,,,,,,
https://pro.restorationindustry.org/find-a-member/rainbow-international-oxford-0,Rainbow International of Oxford,,,Rainbow International of Oxford,45 Putter Lane,,Torrington,CT,06790,United States,45 Putter Lane Torrington CT 06790 United States,,"Contact
Andrew Luciano",,,,,,,
https://pro.restorationindustry.org/find-a-member/plow-and-property-projects-llc,Plow And Property Projects Llc,,,Plow And Property Projects Llc,131 summit street Unit C,,Newington,CT,06111,United States,131 summit street Unit C Newington CT 06111 United States,,"Contact
Wesley Vercosa",,,,,,,
https://pro.restorationindustry.org/find-a-member/servpro-egg-harbor,Servpro egg harbor,"Phone
16094189933",,Servpro egg harbor,8 Steelmans Lane Suite C,,Egg Harbor Township,NJ,08234,United States,8 Steelmans Lane Suite C Egg Harbor Township NJ 08234 United States,,"Contact
Mr Jim Gibbs","About
Emergency Clean up and Restoration With locations in South Jersey and Philadelphia.",,,,,,
https://pro.restorationindustry.org/find-a-member/county-action-restoration,County Action Restoration,"Phone
918-9698",,County Action Restoration,1313 West Chester Pike,,West Chester,PA,19382,United States,1313 West Chester Pike West Chester PA 19382 United States,,"Contact
Mr. Michael McCullough",,https://www.countyservicesinc.com/,,,,,
https://pro.restorationindustry.org/find-a-member/blusky-restoration-contractors-49,BluSky Restoration Contractors,,,BluSky Restoration Contractors,,,Boothwyn,PA,,United States,Boothwyn PA United States,,"Contact
Dave Hickey",,,,,,,
https://pro.restorationindustry.org/find-a-member/damage-control-inc,"Damage Control, Inc.","Phone
570-341-1500",,"Damage Control, Inc.",342 Main St.,,Eynon,PA,18403,United States,342 Main St. Eynon PA 18403 United States,,"Contact
Jeff Skrilow","About
..",https://www.damagecontrolinc.com/,,,,,
